NORAD_CAT_ID,OBJECT_NAME,OBJECT_TYPE,EPOCH,MEAN_MOTION,ECCENTRICITY,INCLINATION,RA_OF_ASC_NODE,ARG_OF_PERICENTER,MEAN_ANOMALY,BSTAR,MEAN_MOTION_DOT,MEAN_MOTION_DDOT,TLE_LINE0,TLE_LINE1,TLE_LINE2,SEMIMAJOR_AXIS,PERIOD,APOGEE,PERIGEE,DECAYED
51113.0,STARLINK-3372,PAYLOAD,2023-02-21 18:46:18,15.08848038,0.0001251,53.216,240.6655,96.6157,263.4978,0.00018208,2.612e-05,0.0,0 STARLINK-3372,1 51113U 22005K   23052.78215980  .00002612  00000-0  18208-3 0  9995,2 51113  53.2160 240.6655 0001251  96.6157 263.4978 15.08848038 62126,6917.856,95.437,540.586,538.855,0.0
51113.0,STARLINK-3372,PAYLOAD,2023-02-21 20:21:41,15.08850251,0.0001273,53.2161,240.3682,95.5261,264.5876,0.00023599,3.471e-05,0.0,0 STARLINK-3372,1 51113U 22005K   23052.84839922  .00003471  00000-0  23599-3 0  9993,2 51113  53.2161 240.3682 0001273  95.5261 264.5876 15.08850251 61029,6917.849,95.437,540.595,538.833,0.0
51113.0,STARLINK-3372,PAYLOAD,2023-02-22 12:15:33,15.08839249,0.0001327,53.2151,237.393,91.7192,268.3952,8.6427e-05,1.088e-05,0.0,0 STARLINK-3372,1 51113U 22005K   23053.51080380  .00001088  00000-0  86427-4 0  9996,2 51113  53.2151 237.3930 0001327  91.7192 268.3952 15.08839249 61123,6917.883,95.438,540.666,538.83,0.0
51113.0,STARLINK-3372,PAYLOAD,2023-02-22 18:37:05,15.08842082,0.0001253,53.2163,236.2052,82.4441,277.6694,0.00016256,2.3e-05,0.0,0 STARLINK-3372,1 51113U 22005K   23053.77576372  .00002300  00000-0  16256-3 0  9995,2 51113  53.2163 236.2052 0001253  82.4441 277.6694 15.08842082 62273,6917.874,95.437,540.606,538.872,0.0
51113.0,STARLINK-3372,PAYLOAD,2023-02-22 21:47:52,15.08844162,0.0001246,53.2164,235.61,81.3413,278.7721,0.00024902,3.678e-05,0.0,0 STARLINK-3372,1 51113U 22005K   23053.90824322  .00003678  00000-0  24902-3 0  9997,2 51113  53.2164 235.6100 0001246  81.3413 278.7721 15.08844162 61183,6917.868,95.437,540.595,538.871,0.0
51113.0,STARLINK-3372,PAYLOAD,2023-02-23 13:41:43,15.0884373,0.0001324,53.2165,232.6365,81.0158,279.0984,0.00030641,4.592e-05,0.0,0 STARLINK-3372,1 51113U 22005K   23054.57064467  .00004592  00000-0  30641-3 0  9990,2 51113  53.2165 232.6365 0001324  81.0158 279.0984 15.08843730 61280,6917.869,95.437,540.65,538.818,0.0
51113.0,STARLINK-3372,PAYLOAD,2023-02-23 20:03:16,15.08849576,0.0001303,53.2166,231.447,81.7695,278.3445,0.00036278,5.492e-05,0.0,0 STARLINK-3372,1 51113U 22005K   23054.83560267  .00005492  00000-0  36278-3 0  9990,2 51113  53.2166 231.4470 0001303  81.7695 278.3445 15.08849576 61328,6917.851,95.437,540.618,538.815,0.0
51113.0,STARLINK-3372,PAYLOAD,2023-02-23 21:38:39,15.08851717,0.0001307,53.2167,231.1496,81.6438,278.4703,0.00041189,6.275e-05,0.0,0 STARLINK-3372,1 51113U 22005K   23054.90184192  .00006275  00000-0  41189-3 0  9994,2 51113  53.2167 231.1496 0001307  81.6438 278.4703 15.08851717 62444,6917.845,95.437,540.614,538.805,0.0
51113.0,STARLINK-3372,PAYLOAD,2023-02-24 11:57:07,15.08836003,0.0001063,53.2171,228.4733,80.2034,279.9078,1.4526e-05,-5.7e-07,0.0,0 STARLINK-3372,1 51113U 22005K   23055.49800656 -.00000057  00000-0  14526-4 0  9998,2 51113  53.2171 228.4733 0001063  80.2034 279.9078 15.08836003 61427,6917.893,95.438,540.493,539.022,0.0
51113.0,STARLINK-3372,PAYLOAD,2023-02-24 13:32:30,15.08836491,0.0001157,53.217,228.1758,86.2729,273.8395,1.0468e-05,-1.21e-06,0.0,0 STARLINK-3372,1 51113U 22005K   23055.56424628 -.00000121  00000-0  10468-4 0  9990,2 51113  53.2170 228.1758 0001157  86.2729 273.8395 15.08836491 62541,6917.891,95.438,540.557,538.956,0.0
51113.0,STARLINK-3372,PAYLOAD,2023-02-24 19:54:03,15.0884407,0.0001229,53.2169,226.9871,83.7115,276.4017,0.0002021,2.93e-05,0.0,0 STARLINK-3372,1 51113U 22005K   23055.82920534  .00002930  00000-0  20210-3 0  9990,2 51113  53.2169 226.9871 0001229  83.7115 276.4017 15.08844070 61475,6917.868,95.437,540.583,538.883,0.0
51113.0,STARLINK-3372,PAYLOAD,2023-02-25 03:50:59,15.08835006,0.0001433,53.2171,225.4991,72.875,287.2399,0.00010852,1.439e-05,0.0,0 STARLINK-3372,1 51113U 22005K   23056.16040939  .00001439  00000-0  10852-3 0  9994,2 51113  53.2171 225.4991 0001433  72.8750 287.2399 15.08835006 61524,6917.896,95.438,540.752,538.769,0.0
51113.0,STARLINK-3372,PAYLOAD,2023-02-25 18:09:27,15.0883928,0.000108,53.2168,222.8235,80.1021,280.0093,0.00033927,5.116e-05,0.0,0 STARLINK-3372,1 51113U 22005K   23056.75656924  .00005116  00000-0  33927-3 0  9990,2 51113  53.2168 222.8235 0001080  80.1021 280.0093 15.08839280 62726,6917.883,95.438,540.495,539.0,0.0
51113.0,STARLINK-3372,PAYLOAD,2023-02-25 21:20:13,15.08846962,0.0001127,53.2167,222.2286,80.585,279.527,0.00061915,9.581e-05,0.0,0 STARLINK-3372,1 51113U 22005K   23056.88904855  .00009581  00000-0  61915-3 0  9991,2 51113  53.2167 222.2286 0001127  80.5850 279.5270 15.08846962 61635,6917.859,95.437,540.504,538.944,0.0
51113.0,STARLINK-3372,PAYLOAD,2023-02-26 10:03:18,15.0884882,0.0001163,53.2168,219.8501,86.1385,273.974,0.00047612,7.299e-05,0.0,0 STARLINK-3372,1 51113U 22005K   23057.41896805  .00007299  00000-0  47612-3 0  9998,2 51113  53.2168 219.8501 0001163  86.1385 273.9740 15.08848820 61717,6917.853,95.437,540.523,538.914,0.0
51113.0,STARLINK-3372,PAYLOAD,2023-02-26 19:35:37,15.08862621,0.0001194,53.2163,218.066,86.7179,273.395,0.00075178,0.00011704,0.0,0 STARLINK-3372,1 51113U 22005K   23057.81640270  .00011704  00000-0  75178-3 0  9999,2 51113  53.2163 218.0660 0001194  86.7179 273.3950 15.08862621 62881,6917.811,95.436,540.502,538.85,0.0
51113.0,STARLINK-3372,PAYLOAD,2023-02-27 03:32:33,15.08835965,9.08e-05,53.2165,216.5776,98.5264,261.5831,-0.00034716,-5.808e-05,0.0,0 STARLINK-3372,1 51113U 22005K   23058.14760425 -.00005808  00000-0 -34716-3 0  9994,2 51113  53.2165 216.5776 0000908  98.5264 261.5831 15.08835965 62936,6917.893,95.438,540.386,539.13,0.0
51113.0,STARLINK-3372,PAYLOAD,2023-02-27 19:26:23,15.08871204,0.0001158,53.2155,213.6055,96.9721,263.1403,0.00093208,0.0001459,0.0,0 STARLINK-3372,1 51113U 22005K   23058.80999718  .00014590  00000-0  93208-3 0  9993,2 51113  53.2155 213.6055 0001158  96.9721 263.1403 15.08871204 61928,6917.785,95.436,540.451,538.849,0.0
51113.0,STARLINK-3372,PAYLOAD,2023-02-28 03:23:20,15.0883591,0.0001202,53.2157,212.1192,84.0304,276.0825,-4.7601e-05,-1.045e-05,0.0,0 STARLINK-3372,1 51113U 22005K   23059.14120403 -.00001045  00000-0 -47601-4 0  9998,2 51113  53.2157 212.1192 0001202  84.0304 276.0825 15.08835910 63085,6917.893,95.438,540.589,538.926,0.0
51113.0,STARLINK-3372,PAYLOAD,2023-02-28 17:41:48,15.08844991,0.0001145,53.2159,209.443,75.9753,284.1367,0.0016531,0.00026123,0.0,0 STARLINK-3372,1 51113U 22005K   23059.73736547  .00026123  00000-0  16531-2 0  9993,2 51113  53.2159 209.4430 0001145  75.9753 284.1367 15.08844991 62061,6917.865,95.437,540.522,538.938,0.0
51113.0,STARLINK-3372,PAYLOAD,2023-03-01 09:35:40,15.08820773,0.0001234,53.2155,206.4678,95.9509,264.1623,0.00016795,2.385e-05,0.0,0 STARLINK-3372,1 51113U 22005K   23060.39977391  .00002385  00000-0  16795-3 0  9998,2 51113  53.2155 206.4678 0001234  95.9509 264.1623 15.08820773 63277,6917.939,95.439,540.658,538.95,0.0
51113.0,STARLINK-3372,PAYLOAD,2023-03-01 20:43:23,15.08832788,0.000157,53.2155,204.3874,81.177,278.94,0.0013894,0.00021889,0.0,0 STARLINK-3372,1 51113U 22005K   23060.86346079  .00021889  00000-0  13894-2 0  9999,2 51113  53.2155 204.3874 0001570  81.1770 278.9400 15.08832788 62232,6917.902,95.438,540.854,538.681,0.0
51113.0,STARLINK-3372,PAYLOAD,2023-03-02 18:58:46,15.08873863,0.0001761,53.2158,200.2251,73.8215,286.2971,0.0015425,0.00024369,0.0,0 STARLINK-3372,1 51113U 22005K   23061.79081363  .00024369  00000-0  15425-2 0  9992,2 51113  53.2158 200.2251 0001761  73.8215 286.2971 15.08873863 63485,6917.777,95.435,540.86,538.424,0.0
51113.0,STARLINK-3372,PAYLOAD,2023-03-03 09:17:14,15.08864963,0.0001713,53.2157,197.5484,80.0045,280.114,0.00081888,0.00012777,0.0,0 STARLINK-3372,1 51113U 22005K   23062.38697132  .00012777  00000-0  81888-3 0  9992,2 51113  53.2157 197.5484 0001713  80.0045 280.1140 15.08864963 63570,6917.804,95.436,540.854,538.484,0.0
51113.0,STARLINK-3372,PAYLOAD,2023-03-03 20:24:55,15.08867547,0.0001868,53.2163,195.4668,81.0587,279.0616,0.0015551,0.00024567,0.0,0 STARLINK-3372,1 51113U 22005K   23062.85064763  .00024567  00000-0  15551-2 0  9995,2 51113  53.2163 195.4668 0001868  81.0587 279.0616 15.08867547 62532,6917.796,95.436,540.953,538.369,0.0
51113.0,STARLINK-3372,PAYLOAD,2023-03-04 09:08:03,15.08781281,0.0002148,53.2163,193.0882,95.384,264.7397,0.001831,0.00028926,0.0,0 STARLINK-3372,1 51113U 22005K   23063.38059399  .00028926  00000-0  18310-2 0  9992,2 51113  53.2163 193.0882 0002148  95.3840 264.7397 15.08781281 63725,6918.06,95.441,541.411,538.439,0.0
51113.0,STARLINK-3372,PAYLOAD,2023-03-04 20:15:46,15.08806233,0.0001445,53.2173,191.005,114.2454,245.8689,0.0023451,0.00037197,0.0,0 STARLINK-3372,1 51113U 22005K   23063.84428808  .00037197  00000-0  23451-2 0  9990,2 51113  53.2173 191.0050 0001445 114.2454 245.8689 15.08806233 62685,6917.984,95.44,540.848,538.849,0.0
51113.0,STARLINK-3372,PAYLOAD,2023-03-05 01:01:55,15.08844535,8.3e-05,53.2173,190.1144,95.6474,264.4612,0.0034254,0.00054657,0.0,0 STARLINK-3372,1 51113U 22005K   23064.04300569  .00054657  00000-0  34254-2 0  9999,2 51113  53.2173 190.1144 0000830  95.6474 264.4612 15.08844535 63827,6917.867,95.437,540.306,539.157,0.0
51113.0,STARLINK-3372,PAYLOAD,2023-03-06 00:52:39,15.0891319,3.8e-05,53.2164,185.6555,166.8111,193.2891,0.0018566,0.00029443,0.0,0 STARLINK-3372,1 51113U 22005K   23065.03657242  .00029443  00000-0  18566-2 0  9995,2 51113  53.2164 185.6555 0000380 166.8111 193.2891 15.08913190 63979,6917.657,95.433,539.785,539.259,0.0
51113.0,STARLINK-3372,PAYLOAD,2023-03-06 12:00:21,15.08855373,0.0001196,53.2163,183.573,114.2849,245.8268,0.0023281,0.00036974,0.0,0 STARLINK-3372,1 51113U 22005K   23065.50025451  .00036974  00000-0  23281-2 0  9995,2 51113  53.2163 183.5730 0001196 114.2849 245.8268 15.08855373 64040,6917.833,95.437,540.526,538.871,0.0
